{
    "links": {
        "self": "http://www.neowsapp.com/rest/v1/neo/3292013?api_key=iIulBulltgU6a56xZRHN4H3l9WmuAYTsLGpBGhQ2"
    },
    "id": "3292013",
    "neo_reference_id": "3292013",
    "name": "(2005 SY70)",
    "designation": "2005 SY70",
    "nasa_jpl_url": "http://ssd.jpl.nasa.gov/sbdb.cgi?sstr=3292013",
    "absolute_magnitude_h": 26.8,
    "estimated_diameter": {
        "kilometers": {
            "estimated_diameter_min": 0.0116025908,
            "estimated_diameter_max": 0.0259441818
        },
        "meters": {
            "estimated_diameter_min": 11.6025908209,
            "estimated_diameter_max": 25.9441817907
        },
        "miles": {
            "estimated_diameter_min": 0.0072095135,
            "estimated_diameter_max": 0.0161209622
        },
        "feet": {
            "estimated_diameter_min": 38.066244069,
            "estimated_diameter_max": 85.1187093863
        }
    },
    "is_potentially_hazardous_asteroid": false,
    "close_approach_data": [
        {
            "close_approach_date": "2005-10-04",
            "close_approach_date_full": "2005-Oct-04 12:52",
            "epoch_date_close_approach": 1128430320000,
            "relative_velocity": {
                "kilometers_per_second": "6.3742878932",
                "kilometers_per_hour": "22947.4364156937",
                "miles_per_hour": "14258.644588407"
            },
            "miss_distance": {
                "astronomical": "0.0518565525",
                "lunar": "20.1721989225",
                "kilometers": "7757629.799543175",
                "miles": "4820367.634018815"
            },
            "orbiting_body": "Earth"
        }
    ],
    "orbital_data": {
        "orbit_id": "7",
        "orbit_determination_date": "2017-04-06 09:10:23",
        "first_observation_date": "2005-09-30",
        "last_observation_date": "2005-10-07",
        "data_arc_in_days": 7,
        "observations_used": 18,
        "orbit_uncertainty": "8",
        "minimum_orbit_intersection": ".0504765",
        "jupiter_tisserand_invariant": "3.394",
        "epoch_osculation": "2453646.5",
        "eccentricity": ".5403162669203567",
        "semi_major_axis": "2.282395933287916",
        "inclination": "1.43961450466881",
        "ascending_node_longitude": "19.09670901239498",
        "orbital_period": "1259.461522820116",
        "perihelion_distance": "1.049180282979586",
        "perihelion_argument": "358.5876248196117",
        "aphelion_distance": "3.515611583596247",
        "perihelion_time": "2453653.173928752759",
        "mean_anomaly": "358.092347953899",
        "mean_motion": ".2858364415880749",
        "equinox": "J2000",
        "orbit_class": {
            "orbit_class_type": "AMO",
            "orbit_class_description": "Near-Earth asteroid orbits similar to that of 1221 Amor",
            "orbit_class_range": "1.017 AU < q (perihelion) < 1.3 AU"
        }
    },
    "is_sentry_object": false
}